{"type": "FeatureCollection", "features": [ {"type": "Feature", "properties": {"norad_id": 34464, "name": "COSMOS 2251 DEB", "group": "cosmos-2251-debris", "lat": 55.28677034647962, "lon": -124.20019043687255, "alt_km": 487.68044505168655, "timestamp": "2025-12-11T18:59:46.469808+00:00", "meta": {"OBJECT_NAME": "COSMOS 2251 DEB", "OBJECT_ID": "1993-036TH", "EPOCH": "2025-12-11T07:27:28.894176", "MEAN_MOTION": 15.2673701, "ECCENTRICITY": 0.00161569, "INCLINATION": 73.9889, "RA_OF_ASC_NODE": 81.3085, "ARG_OF_PERICENTER": 259.446, "MEAN_ANOMALY": 100.4921, "EPHEMERIS_TYPE": 0, "CLASSIFICATION_TYPE": "U", "NORAD_CAT_ID": 34464, "ELEMENT_SET_NO": 999, "REV_AT_EPOCH": 89818, "BSTAR": 0.0055421497, "MEAN_MOTION_DOT": 0.00149207, "MEAN_MOTION_DDOT": 0}, "tle": {"line1": "1 34464U 93036TH  25345.31075109  .00149207  00000+0  55421-2 0  9998", "line2": "2 34464  73.9889  81.3085 0016156 259.4460 100.4921 15.26737010898184"}}, "geometry": {"type": "Point", "coordinates": [-124.20019043687255, 55.28677034647962]}}, {"type": "Feature", "properties": {"norad_id": 34468, "name": "COSMOS 2251 DEB", "group": "cosmos-2251-debris", "lat": -68.85418590544053, "lon": -13.18466740864278, "alt_km": 686.5790126641841, "timestamp": "2025-12-11T18:59:46.469819+00:00", "meta": {"OBJECT_NAME": "COSMOS 2251 DEB", "OBJECT_ID": "1993-036TM", "EPOCH": "2025-12-11T02:53:09.097152", "MEAN_MOTION": 14.47617697, "ECCENTRICITY": 0.00763484, "INCLINATION": 74.0129, "RA_OF_ASC_NODE": 120.2381, "ARG_OF_PERICENTER": 265.4957, "MEAN_ANOMALY": 93.7477, "EPHEMERIS_TYPE": 0, "CLASSIFICATION_TYPE": "U", "NORAD_CAT_ID": 34468, "ELEMENT_SET_NO": 999, "REV_AT_EPOCH": 88438, "BSTAR": 0.00055897642, "MEAN_MOTION_DOT": 2.107e-05, "MEAN_MOTION_DDOT": 0}, "tle": {"line1": "1 34468U 93036TM  25345.12024418  .00002107  00000+0  55898-3 0  9994", "line2": "2 34468  74.0129 120.2381 0076348 265.4957  93.7477 14.47617697884383"}}, "geometry": {"type": "Point", "coordinates": [-13.18466740864278, -68.85418590544053]}}, {"type": "Feature", "properties": {"norad_id": 34472, "name": "COSMOS 2251 DEB", "group": "cosmos-2251-debris", "lat": -0.8642759676155988, "lon": -80.04989029696138, "alt_km": 841.3312840989083, "timestamp": "2025-12-11T18:59:46.469830+00:00", "meta": {"OBJECT_NAME": "COSMOS 2251 DEB", "OBJECT_ID": "1993-036TR", "EPOCH": "2025-12-10T17:33:33.413472", "MEAN_MOTION": 13.70324681, "ECCENTRICITY": 0.03280455, "INCLINATION": 74.083, "RA_OF_ASC_NODE": 101.446, "ARG_OF_PERICENTER": 232.9036, "MEAN_ANOMALY": 124.1688, "EPHEMERIS_TYPE": 0, "CLASSIFICATION_TYPE": "U", "NORAD_CAT_ID": 34472, "ELEMENT_SET_NO": 999, "REV_AT_EPOCH": 83699, "BSTAR": 0.0010864797, "MEAN_MOTION_DOT": 1.379e-05, "MEAN_MOTION_DDOT": 0}, "tle": {"line1": "1 34472U 93036TR  25344.73163673  .00001379  00000+0  10865-2 0  9996", "line2": "2 34472  74.0830 101.4460 0328045 232.9036 124.1688 13.70324681836997"}}, "geometry": {"type": "Point", "coordinates": [-80.04989029696138, -0.8642759676155988]}}, {"type": "Feature", "properties": {"norad_id": 34474, "name": "COSMOS 2251 DEB", "group": "cosmos-2251-debris", "lat": -15.101495992049044, "lon": 152.25226607203788, "alt_km": 1004.201760391139, "timestamp": "2025-12-11T18:59:46.469841+00:00", "meta": {"OBJECT_NAME": "COSMOS 2251 DEB", "OBJECT_ID": "1993-036TT", "EPOCH": "2025-12-10T17:19:44.104800", "MEAN_MOTION": 14.06391002, "ECCENTRICITY": 0.01981743, "INCLINATION": 74.0785, "RA_OF_ASC_NODE": 329.7007, "ARG_OF_PERICENTER": 44.0941, "MEAN_ANOMALY": 137.8516, "EPHEMERIS_TYPE": 0, "CLASSIFICATION_TYPE": "U", "NORAD_CAT_ID": 34474, "ELEMENT_SET_NO": 999, "REV_AT_EPOCH": 85480, "BSTAR": 0.0028327315, "MEAN_MOTION_DOT": 5.568e-05, "MEAN_MOTION_DDOT": 0}, "tle": {"line1": "1 34474U 93036TT  25344.72203825  .00005568  00000+0  28327-2 0  9997", "line2": "2 34474  74.0785 329.7007 0198174  44.0941 137.8516 14.06391002854807"}}, "geometry": {"type": "Point", "coordinates": [152.25226607203788, -15.101495992049044]}}, {"type": "Feature", "properties": {"norad_id": 34476, "name": "COSMOS 2251 DEB", "group": "cosmos-2251-debris", "lat": -61.74857236208651, "lon": -63.63584814598943, "alt_km": 832.3623236054636, "timestamp": "2025-12-11T18:59:46.469852+00:00", "meta": {"OBJECT_NAME": "COSMOS 2251 DEB", "OBJECT_ID": "1993-036TV", "EPOCH": "2025-12-09T17:08:07.616256", "MEAN_MOTION": 13.81979993, "ECCENTRICITY": 0.03198793, "INCLINATION": 74.0051, "RA_OF_ASC_NODE": 87.6033, "ARG_OF_PERICENTER": 307.827, "MEAN_ANOMALY": 49.429, "EPHEMERIS_TYPE": 0, "CLASSIFICATION_TYPE": "U", "NORAD_CAT_ID": 34476, "ELEMENT_SET_NO": 999, "REV_AT_EPOCH": 83596, "BSTAR": 0.0043301307, "MEAN_MOTION_DOT": 6.851e-05, "MEAN_MOTION_DDOT": 0}, "tle": {"line1": "1 34476U 93036TV  25343.71397704  .00006851  00000+0  43301-2 0  9992", "line2": "2 34476  74.0051  87.6033 0319879 307.8270  49.4290 13.81979993835962"}}, "geometry": {"type": "Point", "coordinates": [-63.63584814598943, -61.74857236208651]}}, {"type": "Feature", "properties": {"norad_id": 34477, "name": "COSMOS 2251 DEB", "group": "cosmos-2251-debris", "lat": -63.35802153289288, "lon": -73.74971909005758, "alt_km": 656.5786667389057, "timestamp": "2025-12-11T18:59:46.469869+00:00", "meta": {"OBJECT_NAME": "COSMOS 2251 DEB", "OBJECT_ID": "1993-036TW", "EPOCH": "2025-12-11T06:37:04.595232", "MEAN_MOTION": 14.5684873, "ECCENTRICITY": 0.00768985, "INCLINATION": 73.9789, "RA_OF_ASC_NODE": 72.2909, "ARG_OF_PERICENTER": 259.7244, "MEAN_ANOMALY": 164.9191, "EPHEMERIS_TYPE": 0, "CLASSIFICATION_TYPE": "U", "NORAD_CAT_ID": 34477, "ELEMENT_SET_NO": 999, "REV_AT_EPOCH": 88604, "BSTAR": 0.0015379693, "MEAN_MOTION_DOT": 7.152e-05, "MEAN_MOTION_DDOT": 0}, "tle": {"line1": "1 34477U 93036TW  25345.27574763  .00007152  00000+0  15380-2 0  9999", "line2": "2 34477  73.9789  72.2909 0076898 259.7244 164.9191 14.56848730886043"}}, "geometry": {"type": "Point", "coordinates": [-73.74971909005758, -63.35802153289288]}}, {"type": "Feature", "properties": {"norad_id": 34478, "name": "COSMOS 2251 DEB", "group": "cosmos-2251-debris", "lat": -45.02801398625011, "lon": -7.81010788700928, "alt_km": 545.889378477219, "timestamp": "2025-12-11T18:59:46.469879+00:00", "meta": {"OBJECT_NAME": "COSMOS 2251 DEB", "OBJECT_ID": "1993-036TX", "EPOCH": "2025-12-11T03:35:25.078848", "MEAN_MOTION": 15.07789124, "ECCENTRICITY": 0.00351331, "INCLINATION": 74.04, "RA_OF_ASC_NODE": 10.1561, "ARG_OF_PERICENTER": 231.5955, "MEAN_ANOMALY": 197.7773, "EPHEMERIS_TYPE": 0, "CLASSIFICATION_TYPE": "U", "NORAD_CAT_ID": 34478, "ELEMENT_SET_NO": 999, "REV_AT_EPOCH": 88949, "BSTAR": 0.004125654, "MEAN_MOTION_DOT": 0.00064556, "MEAN_MOTION_DDOT": 0}, "tle": {"line1": "1 34478U 93036TX  25345.14959582  .00064556  00000+0  41257-2 0  9995", "line2": "2 34478  74.0400  10.1561 0035133 231.5955 197.7773 15.07789124889495"}}, "geometry": {"type": "Point", "coordinates": [-7.81010788700928, -45.02801398625011]}}, {"type": "Feature", "properties": {"norad_id": 34481, "name": "COSMOS 2251 DEB", "group": "cosmos-2251-debris", "lat": 15.395546020176292, "lon": -129.34325306906368, "alt_km": 762.5795153999097, "timestamp": "2025-12-11T18:59:46.469890+00:00", "meta": {"OBJECT_NAME": "COSMOS 2251 DEB", "OBJECT_ID": "1993-036UA", "EPOCH": "2025-12-11T06:49:40.801728", "MEAN_MOTION": 14.32543525, "ECCENTRICITY": 0.00707583, "INCLINATION": 73.9803, "RA_OF_ASC_NODE": 56.1227, "ARG_OF_PERICENTER": 230.7254, "MEAN_ANOMALY": 200.1808, "EPHEMERIS_TYPE": 0, "CLASSIFICATION_TYPE": "U", "NORAD_CAT_ID": 34481, "ELEMENT_SET_NO": 999, "REV_AT_EPOCH": 87428, "BSTAR": 0.001209715, "MEAN_MOTION_DOT": 3.348e-05, "MEAN_MOTION_DDOT": 0}, "tle": {"line1": "1 34481U 93036UA  25345.28450002  .00003348  00000+0  12097-2 0  9999", "line2": "2 34481  73.9803  56.1227 0070758 230.7254 200.1808 14.32543525874287"}}, "geometry": {"type": "Point", "coordinates": [-129.34325306906368, 15.395546020176292]}}, {"type": "Feature", "properties": {"norad_id": 34482, "name": "COSMOS 2251 DEB", "group": "cosmos-2251-debris", "lat": -28.424859922657348, "lon": 54.341787204470464, "alt_km": 661.4558105646765, "timestamp": "2025-12-11T18:59:46.469901+00:00", "meta": {"OBJECT_NAME": "COSMOS 2251 DEB", "OBJECT_ID": "1993-036UB", "EPOCH": "2025-12-11T02:23:14.699616", "MEAN_MOTION": 14.69125321, "ECCENTRICITY": 0.00451191, "INCLINATION": 74.0368, "RA_OF_ASC_NODE": 226.7683, "ARG_OF_PERICENTER": 287.0577, "MEAN_ANOMALY": 224.4358, "EPHEMERIS_TYPE": 0, "CLASSIFICATION_TYPE": "U", "NORAD_CAT_ID": 34482, "ELEMENT_SET_NO": 999, "REV_AT_EPOCH": 88163, "BSTAR": 0.0028405288, "MEAN_MOTION_DOT": 0.00016972, "MEAN_MOTION_DDOT": 0}, "tle": {"line1": "1 34482U 93036UB  25345.09947569  .00016972  00000+0  28405-2 0  9995", "line2": "2 34482  74.0368 226.7683 0045119 287.0577 224.4358 14.69125321881639"}}, "geometry": {"type": "Point", "coordinates": [54.341787204470464, -28.424859922657348]}}, {"type": "Feature", "properties": {"norad_id": 34544, "name": "COSMOS 2251 DEB", "group": "cosmos-2251-debris", "lat": 54.45255474060324, "lon": 1.748832572575873, "alt_km": 1147.5466389741914, "timestamp": "2025-12-11T18:59:46.469911+00:00", "meta": {"OBJECT_NAME": "COSMOS 2251 DEB", "OBJECT_ID": "1993-036UE", "EPOCH": "2025-12-10T23:12:13.179744", "MEAN_MOTION": 13.54661255, "ECCENTRICITY": 0.0384245, "INCLINATION": 73.9145, "RA_OF_ASC_NODE": 206.8996, "ARG_OF_PERICENTER": 235.6686, "MEAN_ANOMALY": 190.1829, "EPHEMERIS_TYPE": 0, "CLASSIFICATION_TYPE": "U", "NORAD_CAT_ID": 34544, "ELEMENT_SET_NO": 999, "REV_AT_EPOCH": 82858, "BSTAR": 0.00034892, "MEAN_MOTION_DOT": 3.59e-06, "MEAN_MOTION_DDOT": 0}, "tle": {"line1": "1 34544U 93036UE  25344.96681921  .00000359  00000+0  34892-3 0  9996", "line2": "2 34544  73.9145 206.8996 0384245 235.6686 190.1829 13.54661255828582"}}, "geometry": {"type": "Point", "coordinates": [1.748832572575873, 54.45255474060324]}}]}